{
    "links": {
        "self": "http://www.neowsapp.com/rest/v1/neo/54051178?api_key=iIulBulltgU6a56xZRHN4H3l9WmuAYTsLGpBGhQ2"
    },
    "id": "54051178",
    "neo_reference_id": "54051178",
    "name": "(2020 PR6)",
    "designation": "2020 PR6",
    "nasa_jpl_url": "http://ssd.jpl.nasa.gov/sbdb.cgi?sstr=54051178",
    "absolute_magnitude_h": 19.24,
    "estimated_diameter": {
        "kilometers": {
            "estimated_diameter_min": 0.3771854893,
            "estimated_diameter_max": 0.8434123941
        },
        "meters": {
            "estimated_diameter_min": 377.185489265,
            "estimated_diameter_max": 843.412394123
        },
        "miles": {
            "estimated_diameter_min": 0.2343721247,
            "estimated_diameter_max": 0.5240720027
        },
        "feet": {
            "estimated_diameter_min": 1237.4852406001,
            "estimated_diameter_max": 2767.1011191344
        }
    },
    "is_potentially_hazardous_asteroid": false,
    "close_approach_data": [
        {
            "close_approach_date": "2020-07-07",
            "close_approach_date_full": "2020-Jul-07 16:32",
            "epoch_date_close_approach": 1594139520000,
            "relative_velocity": {
                "kilometers_per_second": "19.635954915",
                "kilometers_per_hour": "70689.4376940673",
                "miles_per_hour": "43923.6675494053"
            },
            "miss_distance": {
                "astronomical": "0.1279588821",
                "lunar": "49.7760051369",
                "kilometers": "19142376.209741127",
                "miles": "11894521.0204644726"
            },
            "orbiting_body": "Earth"
        }
    ],
    "orbital_data": {
        "orbit_id": "1",
        "orbit_determination_date": "2020-08-18 23:42:24",
        "first_observation_date": "2020-08-14",
        "last_observation_date": "2020-08-18",
        "data_arc_in_days": 4,
        "observations_used": 13,
        "orbit_uncertainty": "9",
        "minimum_orbit_intersection": ".104338",
        "jupiter_tisserand_invariant": "2.899",
        "epoch_osculation": "2459077.5",
        "eccentricity": ".6619754448767933",
        "semi_major_axis": "2.673360237826471",
        "inclination": "27.54248878832414",
        "ascending_node_longitude": "111.8201227958692",
        "orbital_period": "1596.557827335097",
        "perihelion_distance": ".903661405075363",
        "perihelion_argument": "168.8844698340131",
        "aphelion_distance": "4.443059070577579",
        "perihelion_time": "2459032.388465575850",
        "mean_anomaly": "10.17197881256912",
        "mean_motion": ".2254850991529044",
        "equinox": "J2000",
        "orbit_class": {
            "orbit_class_type": "APO",
            "orbit_class_description": "Near-Earth asteroid orbits which cross the Earth’s orbit similar to that of 1862 Apollo",
            "orbit_class_range": "a (semi-major axis) > 1.0 AU; q (perihelion) < 1.017 AU"
        }
    },
    "is_sentry_object": false
}